UNKNOWN                 
1 81599U          22225.44167762  .00000126  00000+0  33676-3 0  9998
2 81599  67.2987  29.0388 0262111 237.7690 150.3308 13.29340236423169
UNKNOWN                 
1 81614U 76077    22227.53642023  .00002959  00000+0  21881-1 0  9992
2 81614 101.9050 261.4404 0399215 209.0149 148.8175 12.22076684388688
UNKNOWN                 
1 81615U 92021    22227.37033915  .00000395  00000+0  17156-3 0  9990
2 81615  65.8320 350.3677 0825236 333.2401  22.8193 13.23847806421408
UNKNOWN                 
1 81617U 73086    22227.51051596  .00000103  00000+0  87581-3 0  9999
2 81617 101.3058  79.7217 0039014 111.8702 248.6529 12.56317214400432
UNKNOWN                 
1 81624U          22225.43075728  .00001003  00000+0  25558-3 0  9991
2 81624  66.9866 232.0889 0090252 163.0358 197.3807 14.52468094461986
UNKNOWN                 
1 81626U          22227.25071355  .00030531  00000+0  44172-2 0  9997
2 81626  71.0013  75.7538 0020894  76.3273 284.0206 14.75865238450430
UNKNOWN                 
1 81640U          22226.02922224  .00000109  00000+0  15008-3 0  9992
2 81640  65.8246  95.9308 0996734 210.8825 142.9739 12.55571712357231
UNKNOWN                 
1 81652U 76077    22226.91739322  .00000477  00000+0  63182-3 0  9999
2 81652 102.1697 209.0802 0377632 190.4429 199.0807 13.41647591415452
UNKNOWN                 
1 81661U          22226.70884388  .00005248  00000+0  13649-2 0  9995
2 81661  98.4248 144.8956 0066696 321.5188  38.1259 14.48726854358325
UNKNOWN                 
1 81667U          22226.46577882  .00000868  00000+0  29443-3 0  9995
2 81667  74.0444 131.9883 0017264   9.9904 350.1590 14.38115694281272
UNKNOWN                 
1 81674U          22227.22747778  .00000472  00000+0  33784-3 0  9995
2 81674  66.8243 172.8634 0025141   8.5314  60.5847 14.05523741442655
UNKNOWN                 
1 81678U          22224.87760683  .00008309  00000+0  10368-2 0  9996
2 81678  65.8308  81.7830 0050779 327.7548  44.9534 14.81982633467183
UNKNOWN                 
1 81683U          22226.68266160  .00001098  00000+0  31146-3 0  9990
2 81683  81.2227 122.5564 0032114  16.6823 343.5415 14.44619289459610
UNKNOWN                 
1 81693U 73086    22225.95996491  .00000447  00000+0  36025-2 0  9998
2 81693 101.0799  48.1988 0370477 213.9119 143.7743 12.23420980818825
UNKNOWN                 
1 81696U          22227.55932641  .00011933  00000+0  10666-2 0  9997
2 81696  97.4511 138.6457 0201566 339.0674  20.2371 14.81719254332134
UNKNOWN                 
1 81732U          22227.40996632  .00016924  00000+0  17384-2 0  9991
2 81732  65.7355  19.9727 0238643 143.9500 217.7975 14.71668304464188
UNKNOWN                 
1 81745U          22226.21328623  .00001002  00000+0  39975-3 0  9994
2 81745  71.0039 147.3693 0008508 305.1693 206.5171 14.30943718455217
UNKNOWN                 
1 81749U          22227.48184355  .00000031  00000+0  23218-3 0  9994
2 81749  99.6750  53.1488 0370365 347.3643  38.1458 12.77018425406859
UNKNOWN                 
1 81775U          22227.18139324  .00001660  00000+0  75267-3 0  9996
2 81775  82.9281 132.6253 0026497   1.7222 358.4046 14.21225171451628
UNKNOWN                 
1 81779U          22227.05203992  .00004259  00000+0  19874+0 0  9994
2 81779  54.2215 203.0813 1716311  76.5688 301.9868  9.24135150367494
UNKNOWN                 
1 81792U          22226.60211697  .00000140  00000+0  88064-4 0  9997
2 81792  65.8274 292.5763 0905684 101.4658 268.9369 13.04661397416141
UNKNOWN                 
1 81794U          22226.47786290  .00020346  00000+0  22832-2 0  9999
2 81794  81.1832 298.3156 0002016 207.7953 152.3152 14.86686133468441
UNKNOWN                 
1 81798U          22226.08774108  .00007920  00000+0  16535-2 0  9991
2 81798  74.0139 260.9831 0046537 281.8567  77.7381 14.59350565409863
UNKNOWN                 
1 81812U          22227.30009493 -.00001638  00000+0 -11036-1 0  9994
2 81812 103.7161 357.1023 0354955 137.9429 224.9452 12.29486944390759
UNKNOWN                 
1 81813U          22226.42190179  .00001490  00000+0  43814-3 0  9994
2 81813  99.0768  78.8774 0018286 139.0090 221.2477 14.45242219459311
UNKNOWN                 
1 81816U 77121    22226.96809619  .00000305  00000+0  29604-3 0  9995
2 81816  66.2383  73.1264 0196151 234.6888 123.5705 13.84354807440777
UNKNOWN                 
1 81817U          22226.81114915  .00007485  00000+0  72296-3 0  9991
2 81817  65.7270 342.5215 0305321 284.3145  72.4244 14.64349169466610
UNKNOWN                 
1 81818U          22223.56128688  .00001680  00000+0  40048-3 0  9994
2 81818  65.7535 278.3189 0657022 118.7765 248.0907 13.71868357480083
UNKNOWN                 
1 81819U          22225.11941856  .00000280  00000+0  22770-2 0  9994
2 81819 102.2207 290.5656 0034352 224.6705 135.1592 12.45478779396298
UNKNOWN                 
1 81821U          22224.99805736  .00056308 -90053-6  67417-3 0  9993
2 81821  34.0558 196.6866 2031813 302.5942  39.4272 11.48778656428107
UNKNOWN                 
1 81824U          22226.77199598  .00001914  00000+0  94487-3 0  9991
2 81824  65.8506   6.1044 0059518 272.5915  86.8358 14.18849851451219
UNKNOWN                 
1 81833U          22224.77413556  .00000195  00000+0  68747-3 0  9992
2 81833  90.2691 335.3342 0024439 332.4858  27.4965 12.93087701295074
UNKNOWN                 
1 81838U          22227.21888045  .00001579  00000+0  53882-3 0  9999
2 81838  67.7673 148.9338 0031771 100.6161  48.6748 14.38471392457573
UNKNOWN                 
1 81844U          22226.83845111  .00001370  00000+0  66926-3 0  9992
2 81844  82.9274 182.1901 0075980 225.5933 133.9010 14.15900457449931
UNKNOWN                 
1 81845U          22226.85067309  .00000676  00000+0  98143-4 0  9995
2 81845  97.7746  85.7748 0102551 309.7955 110.9147 14.75773796469704
UNKNOWN                 
1 81864U          22222.15106849  .00001313  00000+0  54498-3 0  9991
2 81864  65.6750  24.0746 0791443 180.0122 180.1039 13.26345426388628
UNKNOWN                 
1 81865U 87062    22226.51729580  .00000655  00000+0  57644-3 0  9996
2 81865  82.8047 243.0658 0069427 204.4344 309.5463 13.82930474440162
UNKNOWN                 
1 81872U          22227.03315558  .00116190  00000+0  71836-2 0  9995
2 81872  62.0043 231.7257 1734115 341.7408  12.8018 11.87232134202689
UNKNOWN                 
1 81873U          22226.39941247  .00001558  00000+0  88601-3 0  9994
2 81873  99.0901 270.4376 0070097 276.6129  82.7066 14.10188952397481
UNKNOWN                 
1 81877U          22199.50839911  .00000208  00000+0  37161-3 0  9990
2 81877  65.9318 114.7281 0071275 320.9448  38.6473 13.60574423958784
UNKNOWN                 
1 81893U 70025    22227.19857732  .00000870  00000+0  99754-3 0  9991
2 81893  99.9561 139.5633 0017020 155.4534 204.7426 13.72766688437088
UNKNOWN                 
1 81899U          22226.08581377  .00000176  00000+0  56877-3 0  9997
2 81899 102.4305  96.4797 0178167 256.6219 101.4969 13.16517750418677
UNKNOWN                 
1 81902U          22226.76004654  .00006364  00000+0  81107-3 0  9994
2 81902  81.6285  20.5838 0268416  52.4138 310.1107 14.59128947460595
UNKNOWN                 
1 81905U          22227.45255255  .00379462  19953-4  10695-1 0  9995
2 81905  61.7015 345.2981 1085885 170.4498 191.9141 13.38843181522831
UNKNOWN                 
1 81921U          22224.84707050  .00001034  00000+0  42998-3 0  9996
2 81921  65.7077 280.8449 0893666 271.0505  78.8396 13.07738558868873
UNKNOWN                 
1 81946U 87079    22226.54504863  .00000184  00000+0  77301-3 0  9991
2 81946  66.4241 330.2876 0678571 219.6371 150.7016 12.42003404396812
UNKNOWN                 
1 81947U          22227.48574684  .00001847  00000+0  22523-3 0  9996
2 81947  66.0800 262.6291 0452812 159.0122 203.0242 14.33136215455805
UNKNOWN                 
1 81964U          22226.86374949  .00000080  00000+0  11841-3 0  9997
2 81964  66.5857  35.0523 0036830 181.5243 178.5730 13.94568272444436
UNKNOWN                 
1 81969U          22226.50957732  .00001699  00000+0  18758-3 0  9991
2 81969  86.6704 312.1977 0009667 203.5059 156.5726 14.86804499258301
UNKNOWN                 
1 81995U          22221.85264434  .00005605  00000+0  12839-2 0  9997
2 81995  65.7563  20.3156 0592623 180.6233 179.4171 13.83527259434223
UNKNOWN                 
1 82039U          22227.08411798  .00005595  00000+0  12090-2 0  9992
2 82039  99.0704 268.0938 0042315 163.3458 196.9139 14.58196546379819
UNKNOWN                 
1 82043U          22227.12758736  .00000853  00000+0  27931-3 0  9991
2 82043  97.9655 113.0082 0260926 109.5161 253.4399 14.23043646400465
UNKNOWN                 
1 82044U          22213.14547757  .00000469  00000+0  53749-3 0  9997
2 82044  99.9296 281.9763 0065496 208.7816 150.9712 13.74519226392821
UNKNOWN                 
1 82051U          22224.90983726  .00001825  00000+0  83315-3 0  9990
2 82051  98.8214 291.3175 0117272 197.4596 162.2532 14.19199833398817
UNKNOWN                 
1 82073U          22227.34640152  .00000649  00000+0  20832-3 0  9996
2 82073  97.6901  57.1095 0241259   1.9530 358.2539 14.27087575401121
UNKNOWN                 
1 82112U          22225.24503856  .00003693  00000+0  97170-3 0  9997
2 82112  98.6533 331.2996 0097330  51.8076 309.1832 14.46892787405283
UNKNOWN                 
1 82134U          22213.60685700  .00728915  00000+0  12407+0 0  9994
2 82134  65.3897  64.6116 2225455 144.5966 232.5472 10.67200928 18449
UNKNOWN                 
1 82139U          22226.33279321  .00001285  00000+0  76842-3 0  9992
2 82139  99.1164 267.0207 0092757 216.9023 142.5739 14.06884409308615
UNKNOWN                 
1 82162U          22226.30898590  .00001252  00000+0  22493-2 0  9996
2 82162 100.3704  82.4946 0053179 288.9891  70.5480 13.43329357340437
UNKNOWN                 
1 82168U          22223.73798991  .00016595  00000+0  20156-2 0  9990
2 82168  74.0043  27.8457 0013588  62.7532 297.5029 14.83451013309330
